phone,phone,headphone,jack,custom,quad,dac,chip,phone,es,lg,headphone,google,assistant,size,battery,charge,charge,qi,wireless,processor,footing,s9+,feature,place,telephone,call,technology,day,
issue,delivery,seller,camera..,super,pimple,battery,life,awesome,
camera,quality,image,capture,speed,move,blur,ai,mess,photo,result,speed,quality,processing,
,
phone,
phone,claro,network,network,verizon,
carrier,phone,connect,verizon,network,
g5,g6,angle,selfie,g7,feature,order,product,lg,product,promotion,
phone,love,competitor,store,hand,handle,display,photo,husband,distance,picture,determiner,clarity,picture,quality,color,filter,call,quality,display,glass,feature,fun,processor,
lte,band,europe,smartphone,
phone,argentina,work,
start,review,mention,phone,iphone,samsung,galaxy,s7,samsung,galaxy,s9,couple,example,phone,wife,thing,catch,attention,screen,eye,feature,ve,phone,boost,screen,level,sunlight,weird,edge,screen,galaxy,s9,screen,glare,corner,glass,screen,protector,camera,‚Äì,camera,color,enhancement,coolest,feature,wide-angle,photo,distance,battery,idea,phone,pay,attention,hardware,truth,phone,day,problem,battery,performance,face,recognition,face,recognition,fast‚Ä¶very,t,wait,unlock,sound,sound,competition,phone,con,camera,camera,samsung,galaxy,s9,night,photography,front,camera,s9,s9,side,button,phone,button,button,shortcut,camera,thing,
verizon,phone,turbo,lot,quality,screen,pic,light,user,jack,sd,slot,battery,life,model,sound,quality,quality,sound,recommend,friend,purchase,
phone,day,camera,lock,picture,mode,return,freeze,alot,phone,face,thing,picture,place,screen,alot,figure,store,time,thing,pay,restock,fee,tax,hate,phone,daughter,price,feature,work,phone,company,purchase,opinion,work,
year,deal,phone,phone,pure,month,disappointment,lg,feature,stock,android,o,update,manner,resource,phone,flagship,phone,time,phone,wonder,devision,
perfect,phone,week,issue,
xz,radio,radio,factor,jack,experience,dongle,bluetooth,phone,hour,work,factor,year,warranty,kind,deal,reason,music,heard,feature,sony,xz,thing,interface,brand,issue,finger,samsung,s9,lg,g7,thinq,lg,g7,browsing,buy,g6,display,online,g7,purchase,
issue,att,network,att,store,phone,hour,phone,network,provider,claro,box,instruction,lg,panama,lg,g,series,phone,simplicity,performance,dont,phone,amazon,
ip,screen,eye,phone,headphone,jack,nice,
bh,discount,list,freebie,phone,tx,sh,glass,screen,protector,pair,phone,t,mobile,ratio,phone,fit,front,pocket,android,thing,phone,call,text,email,photo,music,camera,iphone,t,youtube,reviewer,t,phone,video,feature,pause,video,video,file,break,camera,video,record,button,camera,switch,photo,video,angle,indoor,music,priority,music,car,speaker,time,headphone,jack,choice,m,glad,jack,quad,music,sound,car,speaker,boom,box,speaker,bass,absent,place,perfect,hate,music,phone,month,update,battery,option,battery,life,m,light,medium,day,charge,charge,minute,google,assistant,work,didn,t,lot,time,t,lg,g7,‚Äò,hey,skin,top,android,feature,bar,lg,music,player,google,music,player,ad,machine,matter,music,service,music,interest,super,daylight,sunglass,sunglass,screen,ve,boost,method,order,face,unlock,fingerprint,unlock,knock,code,voice,unlock,fingerprint,unlock,screen,phone,size,kind,phone,toy,phone,feel,camera,photo,‚Äô,ve,photo,iphone,phone,photo,video,camera,quality,experience,canon,phone,
experience,design,card,sim,card,tray,phone,contact,pull,search,offer,replacement,tray,user,thing,phone,problem,damage,warranty,program,repair,policy,week,turn,repair,phone,result,phone,product,
size,device,performance,hardware,stutter,lag,camera,software,lock,launch,photo,capture,battery,life,signal,area,drain,hour,standby,device,
work,phone,audio,buy,
phone,att,work,wifi,house,
privacy,policy,reserve,location,contact,picture,video,email,thinq,google,assistant,reserve,force,feature,phone,lg,spy,brick,phone,pay,phone,privacy,violation,decency,privacy,policy,screen,
phone,
price,flagship,level,phone,factory,amazon,party,gsm,sim,phone,micro,talk,wireless,service,minute,g3,backup,restore,year,warranty,
phone,product,issue,
product,camera,phone,pic,front,sound,bass,display,rating,dont,q,thing,dull,display,reverse,minute,lg,pricing,phone,tax,tag,lg,g7,thinq,rating,-5/5,tag,phone,super,heat,box,display,camera,light,pic,gesture,vibration,pattern,
phone,version,phone,verizon,verizon,fault,phone,morning,
phone,battery,life,display,sunlight,sound,
complaint,performance,phone,network,claro,party,seller,claim,
mine,buy,complaint,android,oreo,c,amon,lg,google,fi,google,amon,lg,support,flagship,device,video,screen,camera,word,software,android,shot,blurry,app,default,too-,tap,game,tap,history,lg,software,phone,thing,cuz,bezel,dollar,phone,rage,boomin,speaker,speaker,mind,shower,shower,loud,speaker,ohm,yamahas,bose,bose,headphone,quality,speaker,screen,hour,screen,time,day,battery,super,spec,google,update,/,ratio,issue,
phone,work,phone,verizon,phone,network,ok.,call,card,phone,phone,crystal,text,video,picture,work,fine,problem,phone,resolution,picture,quality,excellent,phone,
phone,deal,time,review,person,side,photo,choice,thing,phone,processor,quality,photograph,display,call,perfection,
samsung,lg,g7,thinq,difference,quality,
phone,time,compatiblity,device,lg,g7,flagship,spec,sound,perfection,o.s,dont,freeze,lg,repair,phone,cam,con,recognition,bit,phone,
phone,phone,version,version,warranty,model,number,phone,number,g710ulm,version,warranty,time,service,luck,lg,number,phone,phone,lg,power,phone,power,claro,language,claro,carrier,guatemala,phone,phone,claro,bloatware,issue,phone,carrier,version,version,att,phone,call,work,speed,network,version,speed,test,speed,
ton,phone,week,phone,verizon,phone,online,manufacturer,seller,phone,verizon,product,bummer,phone,seller,
phone,lg,g5,apps,work,premium,voicemail,hour,phone,verizon,resolve,problem,luck,phone,apps,work,access,voice,message,pain,neck,
deal,display,phone,super,fast,price,year,flagship,phone,phone,patch,time,purchase,hardware,range,price,phone,pie,lg,patch,android,phone,gon,type,compromise,performance,phone,notch,want-,ip68,wireless,transfer,speed,display,camera,video,angle,storage,speaker,bit,dac,photography,google,camera,app,night,sight,maximize,hardware,ability,capture,image,choice,phone,year,iphone,x,galaxy,item,g7,g710ulm,
love,phone,iphone,x,
factory,phone,claro,wireless,phone,software,claro,
verizon,verizon,pouty,worthless,contract,battery,lif,motorla,razr,picture,
cellphone,work,
platinum,grey,g7,thinq,mail,yesterday,case,screen,protector,set,contact,store,today,plan,gentleman,question,manufacturer,verizon,verizon,camera,night,picture,mp,camera,phone,quality,camera,phone,friend,google,take,picture,phone,functionality,expectation,reason,rating,seller,b,description,question,network,phone,compatible,
lg,marketing,department,phone,product..,phone,phone,hand,iphone,model,opinion,designer,
whife,
brand,model,product,operate,note,g7,thinq,user,interface,lg,v35,g7,find,option,model,quality,excellent,sound,quality,average,moto,droid,turbo,stereo,speaker,choice,interface,difference,phone,
phone,talk,sim,verizon,tower,google,phone,voice,mail,work,hitch,hurry,push,update,buy,party,seller,model,ship,carrier,model,
husband,phone,
phone,imei,database,wastedlot,hour,customer,support,return,device,
job,samsung,s8+,note,g7,bit,phone,g3,g4,g5,modular,phone,firm,decision,s6+,s7,edge,s8+,future,budget,phone,option,phone,price,samsung,ram,s9+,screen,size,frame,bit,lg,apple,lg,screen,lcd,vivid,screen,difference,super,honest,lcd,screen,glad,lg,screen,place,beat,battery,life,option,dang,screen,notch,order,support,wireless,phone,metal,trade-off,worth,convenience,wireless,trust,issue,case,wireless,headphone,jack,move,dac,audio,player,phone,plain,phone,earbuds,headphone,device,love,mine,lot,camera,opinion,par,samsung,boom,speaker,hmmm,bit,brag,louder,s8+,consider,watch,movie,music,sound,g7,addition,wireless,feature,feature,way,phone,standard,fingerprint,sensor,placement,finger,time,employ,feature,place,pattern,code,recognition,s8+,gorilla,glass,front,site,incorrect,help,phone,case,screen,protector,glass,silicone,question,claim,chance,device,drop,point,favor,care,speed,step,notice,skin,g3,direction,time,device,stock,android,move,lg,samsung,shadow,thing,g7,exception,theme,device,day,sacrifice,stock,android,iphone,estate,option,place,camera,front,screen,pop-up,camera,place,work,lg,option,thing,surprise,bug,option,touch,button,ripoff,samsung,button,google,user,google,lot,feature,google,hand,issue,button,thing,convenient,camera,phone,lg,courage,decision,samsung,refuse,sayin,phone,bit,inability,market,device,kind,success,phone,device,today,
samsung,owner,year,month,problem,
phone,minute,freezes.it,advertised.so,send,back.and,wait,
phone,lag,watch,alot,movie,video,play,quality,pick,service,lg,metro,connection,video,quality,making,charger,battery,pack,battery,day,
hardware,flagship,device,steal,cricket,sim,card,warranty,instruction,network,t-mobile,
,
room,/,photo,enhancer,photo,clearer,option,phone,
phone,phone,bloatware,splash,screen,service,fine,beware,doubt,
customer,deal,spec,phone,bargain,price,purchase,
seller,phone,att,phone,work,awesome,
review,phone,att,phone,instruction,phone,phone,price,phone,nicer,feature,phone,price,moto,g7,phone,g5,purchase,phone,
phone,year,moto,g3,battery,capacity,problem,speaker,phone,phone,att,service,wifi,work,turn,imei,account,trip,att,store,card,system,work,
phone,work,thing,notification,
phone,pack,inch,screen,size,honor,case,day,case,thing,play,game,call,crystal,pick,call,basement,phone,issue,version,tmobile,dont,mind,stuff,phone,omg,hate,fb,app,gon,phone,wider,g7,gig,ram,doesnt,wiht,wireless,charger,wireless,picture,compare,phone,honor,spot,speaker,problem,year,week,dolt,tmobile,tmobile,att,phone,duh,model,number,contact,vendor,dollar,phone,dollar,att,wifi,issue,doesnt,work,sim,phone,sound,water,proof,con,att,phone,lg,update,pie,ypu,sim,pie,buck,ypu,cant,afford,phone,
phone,package,pc,card,switch,network,reset,network,card,didn,t,work,contact,seller,manage,issue,
phone,preference,camera,quality,picture,resolution,phone,week,
phone,week,reason,phone,camera,camera,picture,video,quality,quality,
phone,camera,battery,life,leaf,easy,
seller,sticker,att,sticker,problem,logo,problem,delete,crap,problem,wifi,spoke,engineer,phone,hardware,att,word,feedback,buyer,beware,-bk,
muy,buen,equipo,
g5,love,
battery,life,
charge,cord,üò§,
photo,crisp,dac,headphone,jack,micro,memory,wireless,reader,phone,
phone,samsung,galaxy,android,dad,review,spent,phone,payment,phone,price,capacity,battery,lot,caise,cant,thibg,dont,instead..but,day,issue,phone,care,phone,transfer,min,sad,switch,
phone,v20,year,phone,day,cricket,wireless,problem,
star,advertising,phone,
phone,battery,life,camera,denim,fabric,pair,wrangler,jean,att/android,software,bug,hope,revision,app,message,screen,app,manager,force,email,restart,o,display,screen,
price,phone,
work,freedom,cellphone,quality,screen,protector,case,
friend,purchase,
phone,price,refuse,amount,money,samsung,apple,charge,phone,phone,cricket,box,card,battery,life,camera,ton,thing,customize,phone,day,shipping,
cricket,service,work,
,
thin,
phone,work,
device,activate,talk,gsm,product,bloatware,cleanup,storage,phone,compromise,lg,v35,quality,glass,design,galaxy,s9+,feel,hand,impact,case,screen,samsung,panel,performance-wise,device,snapdragon,ram,multitasking,breeze,lag,lg,stock,rom,apps,modem,performance,modem,download,lte,yard,camera,camera,front,camera,video,image,vivid,crisp,battery,life,problem,charge,brick,hand,audio,high-quality,dac,headphone,playback,sound,mono,speaker,voice,call,talk,pretty,music,feature,voicemail,voice,talk,concern,software,update,software,security,patch,reach,lg,software,security,patch,beware,phone,cost,price,customer,deal,recommend,
e,money,
lg,phone,phone,phone,lg,commitment,camera,phone,picture,color,item,picture,color,picture,camera,phone,picture,craft,item,camera,zone,road,drive,daughter,issue,year,samsung,verizon,problem,zone,drop,call,family,issue,gps,trip,state,gps,system,problem,mountain,town,area,service,phone,system,basis,house,chance,trip,phone,phone,g3,lg,g6,carrier,coverage,phone,thing,dealt,phone,
v35,lg,phone,
phone,fact,work,talk,card,place,slot,front,holder,carrier,carrier,phone,quality,phone,price,
wife,love,v20,battery,life,improvement,work,issue,
speaker,camera,
metro,tmobile,carrier,signal,love,phone,place,
lot,phone,replacement,pocophone,carrier,compatibility,lot,phone,range,budget,phone,side,feature,component,v35,spec,par,pricier,phone,screen,witch,prefer,memory,camera,battery,charge,time,experience,review,issue,money,opinion,phone,money,year,phone,price,range,v35,question,phone,guess,price,tag,inch,phone,wider,screen,screen,size,length,wise,screen,phone,thing,night,stock,android,shareware,breaker,mention,purchase,component,phone,phone,
phone,price,
lg,optimus,prog,year,time,phone,love,thing,phone,camera,music,player,speaker,
phone,iphone,camera,scree,phone,shine,
device,eu,phone,gsm,thing,network,provider,att,bloatware,phone,kdz,firmware,online,option,file,bloatware,phone,android,pie,update,
work,lot,morning,
phone,package,lot,storage,design,screen,battery,life,performance,camera,plenty,ram,storage,water,resistence,wireless,wait,month,complaint,software,phone,lg,
cellphone,condition,
g3,v40,v40,lg,iphone,time,fact,iphone,awake,feature,dont,call,battery,life,phone,day,day,plug,day,camera,camera,photo,fun,picture,thing,job,lg,awesome,
reviewer,review,bh,amazon,phone,camera,camera,blurry,issue,reddit,site,reviewer,upset,phone,picture,lg,phone,stupidity,phone,flagship,camera,headphone,jack,price,point,
highend,cell,phone,price,network,change,network,moment,txt,function,network,connection,activate,lte,gsm,phone,switch,moment,sprint,phone,
pre,phone,bh,yesterday,today,time,thing,phone,camera,blurry,focus,quality,image,zoom,blurry,drop,foot,ground,phone,phone,fragile,camera,durability,headphone,jack,software,screen,speaker,button,
phone,
samsung,s8,purchase,v40,phone,camera,array,bit,buy,phone,camera,performance,speed,screen,quality,pure,wifi,performance,iphone,work,cell,service,ecosystem,key,selling,factor,
camera,phone,
phone,day,hardware,wise,smartphone,capacity,battery,complaint,performance,phone,hardware,point,view,issue,lack,software,year,software,center,security,update,software,phone,phone,month,june,flagship,phone,security,update,phone,buy,wait,till,price,drop,range,product,phone,
product,side,compete,samsung,enjoy,display,camera,picture,mode,download,phone,worth,
phone,problem,seller,sprint,phone,carrier,gps,sensor,losing,amazon,fault,time,lg,seller,deceitful,
comment,review,amazon,phone,phone,lag,buy,lv40,guaranty,
cellphone,camera,quality,battery,lg,
phone,option,camera,work,feel,quality,phone,v20,phone,
phone,condition,camera,feature,speaker,
phone,compare,phone,awsome,upgrade,
,
phone,love,camera,camera,downside,charge,case,day,edit..,height,side,charge,case,case,case,case,phone,glass,edge,phone,screen,damage,case,fall,phone,fragile,edit,lg,screen,replacement..,phone,
design,lg,phone,lg,size,bezel,h,oz,hold,phone,hand,card,tb,expansion,card,jack,headphone,jack,headphone,jack,wire,adaptor,experience,adaptor,wire,order,work,engine,durability,test,rating,pass,standard,s,water,ip68,gorilla,glass,camera,heat,prevent,processor,durability,standard,phone,case,insure,protection,longevity,phone,warranty,register,year,warranty,display,‚Äù,qhd+,display,x,phone,display,technology,contrast,vivid,color,battery,efficiency,samsung,screen,difference,quality,screen,phone,offer,‚Äù,screen,screen-to-body,ratio,phone,reader,display,display,mine,display,time,day,level,custom,notch,front,camera,‚Äù,info,time,battery,level,cell,reception,strength,wireless,network,upscaling,phone,doesn,t,work,default,flagship,phone,store,size,icon,text,icon,apple,lg,icon,vibrant,samsung,default,size,prefer,judgment,phone,eye,glare,protection,screen,phone,difficulty,condition,ve,phone,contrast,amazon,paper,ink,display,headphone,sound,phone,flac,music,player,headphone,lg,smartphone,demand,amplifier,drive,custom,phone,jetaudio,power,sensitivity,impedance,v40,version,support,profile,speaker,sound,speaker,sound,volume,speaker,phone,conversation,speaker,phone,teleconference,reception,lg,v40,variety,wifi,bluetooth,v.,hotspot,bluetooth,medium,screen,device,mirror,range,measure,wi-fi,booster,phone,problem,network,password,problem,network,trouble,network,phone,work,doesn,t,deal,tower,work,flagship,phone,deduct,star,rating,ir,blaster,phone,t,control,situation,camera,camera,quality,flagship,samsung,apple,google,picture,picture,process,pic,computer,adobe,computer,lg,v40,lg,control,pic,quality,don,t,lg,test,quality,camera,versatility,wider,view,picture,wide-angle,course,standard,camera,versatility,video,video,photo,moment,video,action,picture,lg,v40,recorder,video,record,help,hdr10,video,point,zoom,area,thing,cinema,effect,record,slo-mo,create,time,video,studio,merge,photo,background,music,phone,outlet,ability,creation,computer,purpose,software,recording,lg,v40,oreo,interface,decent,customize,display,button,google,assistant,siri,substitute,work,apple,google,phone,lg,mediocre,arena,cpu,lg,v40,cpu,gpu,phone,fast,problem,program,snapdragon,adreno,gb,ram,gb,storage,storage,card,security,security,fingerprint,scanner,work,secure,option,phone,face,recognition,feature,apple,battery-life,battery-life,ok.,day,music,reading,game,hour,review,plenty,option,port,wireless,charge,accessory,apple,samsung,command,lion,share,market,accessory,lg,company,quality,manufacturer,lg,s,phone,customer,service,quality,lg,customer,service,corporation,t,business,presence,hope,base,customer,support,speaking,staff,warranty,registration,insistence,storage,smartphone,albeit,samsung,galaxy,s9,s10,galaxy,apple,iphone,google,pixel,option,wire,headphone,pocket,deep,
phone,camera,
glitchy,camera,system,send,pic,story,board,suck,auto,super,phone,
